STARLINK-5345           
1 56517U 23065Q   26068.47741373 -.00000420  00000+0 -15983-4 0  9995
2 56517  43.0037 211.4220 0001386 272.0276  88.0407 15.02531997156594
KUIPER-00139            
1 65765U 25217D   26068.30974975  .00011274  00000+0  87196-3 0  9990
2 65765  51.8865  35.5400 0007119 318.9010  41.1425 15.01890214 24959
